[{"OBJECT_NAME":"IRIDE-MS2-HEO-1","OBJECT_ID":"2025-009CS","EPOCH":"2026-03-09T21:58:17.099616","MEAN_MOTION":14.93995138,"ECCENTRICITY":0.0002115,"INCLINATION":97.7093,"RA_OF_ASC_NODE":149.0685,"ARG_OF_PERICENTER":20.3987,"MEAN_ANOMALY":339.7317,"EPHEMERIS_TYPE":0,"CLASSIFICATION_TYPE":"U","NORAD_CAT_ID":62697,"ELEMENT_SET_NO":999,"REV_AT_EPOCH":6251,"BSTAR":0.00028163235,"MEAN_MOTION_DOT":2.946e-5,"MEAN_MOTION_DDOT":0},{"OBJECT_NAME":"OKEAN-4","OBJECT_ID":"1994-066A","EPOCH":"2026-03-09T20:34:09.232320","MEAN_MOTION":14.96885016,"ECCENTRICITY":0.00147251,"INCLINATION":82.5373,"RA_OF_ASC_NODE":349.8556,"ARG_OF_PERICENTER":246.8531,"MEAN_ANOMALY":113.1141,"EPHEMERIS_TYPE":0,"CLASSIFICATION_TYPE":"U","NORAD_CAT_ID":23317,"ELEMENT_SET_NO":999,"REV_AT_EPOCH":70047,"BSTAR":0.00028288801,"MEAN_MOTION_DOT":3.276e-5,"MEAN_MOTION_DDOT":0}]
